STARLINK-36988          
1 67998U 26039N   26086.83335647 -.01944785  00000+0 -44640-1 0  9998
2 67998  42.9995 306.5391 0001293 279.3120 216.5665 15.45243756  5799
STARLINK-36926          
1 67999U 26039P   26086.87407550  .00089269  00000+0  15734-2 0  9993
2 67999  43.0023 306.3045 0008090 117.2676 242.9009 15.49388678  4483
STARLINK-36931          
1 68000U 26039Q   26086.83335647 -.01920636  00000+0 -46936-1 0  9992
2 68000  43.0002 306.3172 0000869 276.5472 308.9251 15.43380956  5796
STARLINK-36903          
1 68001U 26039R   26086.83335647 -.03555924  00000+0 -13033+0 0  9999
2 68001  42.9989 306.9480 0001754 252.6539  74.4628 15.31523588  5790
STARLINK-36898          
1 68002U 26039S   26086.83335647 -.00011173  00000+0 -38717-3 0  9990
2 68002  42.9991 306.7860 0001712 244.9386 146.9783 15.28400844  5794
STARLINK-36862          
1 68003U 26039T   26086.83335647  .00004592  00000+0  17202-3 0  9992
2 68003  42.9996 306.9705 0000957 246.5023  69.4925 15.28393601  5795
STARLINK-36888          
1 68004U 26039U   26086.83335647  .00008804  00000+0  32107-3 0  9994
2 68004  42.9988 306.9857 0001664 265.4704  45.6085 15.28392148  5795
STARLINK-36910          
1 68005U 26039V   26086.83335647  .00004367  00000+0  16407-3 0  9990
2 68005  42.9994 306.7245 0001616 259.3195 157.1418 15.28391902  5791
STARLINK-36889          
1 68006U 26039W   26086.83335647 -.01870451  00000+0 -54434-1 0  9999
2 68006  42.9995 306.7106 0001395 264.8612 160.4988 15.38072037  5793
STARLINK-36592          
1 68007U 26039X   26086.83335647 -.02207394  00000+0 -77070-1 0  9992
2 68007  42.9996 306.5910 0000959 248.5575 223.1518 15.32449813  5798
STARLINK-36911          
1 68008U 26039Y   26086.83335647 -.01881870  00000+0 -58305-1 0  9999
2 68008  42.9991 306.5494 0001395 276.7939 212.9892 15.36178437  5799
STARLINK-36956          
1 68009U 26039Z   26086.83335647 -.01875830  00000+0 -54074-1 0  9998
2 68009  43.0002 306.5548 0001431 279.7507 208.2887 15.38370055  5794
