CCSDS_OMM_VERS = 2.0
CREATION_DATE  = 
ORIGINATOR     = 

OBJECT_NAME    = STARLINK-36988
OBJECT_ID      = 2026-039N
CENTER_NAME    = EARTH
REF_FRAME      = TEME
TIME_SYSTEM    = UTC
MEAN_ELEMENT_THEORY = SGP/SGP4

EPOCH          = 2026-03-27T20:00:01.999008
MEAN_MOTION    = 15.45243756
ECCENTRICITY   = .0001293
INCLINATION    = 42.9995
RA_OF_ASC_NODE = 306.5391
ARG_OF_PERICENTER = 279.3120
MEAN_ANOMALY   = 216.5665

EPHEMERIS_TYPE = 0
CLASSIFICATION_TYPE = U
NORAD_CAT_ID   = 67998
ELEMENT_SET_NO = 999
REV_AT_EPOCH   = 579
BSTAR          = -.4464E-1
MEAN_MOTION_DOT = -.1944785E-1
MEAN_MOTION_DDOT = 0

CCSDS_OMM_VERS = 2.0
CREATION_DATE  = 
ORIGINATOR     = 

OBJECT_NAME    = STARLINK-36926
OBJECT_ID      = 2026-039P
CENTER_NAME    = EARTH
REF_FRAME      = TEME
TIME_SYSTEM    = UTC
MEAN_ELEMENT_THEORY = SGP/SGP4

EPOCH          = 2026-03-27T20:58:40.123200
MEAN_MOTION    = 15.49388678
ECCENTRICITY   = .000809
INCLINATION    = 43.0023
RA_OF_ASC_NODE = 306.3045
ARG_OF_PERICENTER = 117.2676
MEAN_ANOMALY   = 242.9009

EPHEMERIS_TYPE = 0
CLASSIFICATION_TYPE = U
NORAD_CAT_ID   = 67999
ELEMENT_SET_NO = 999
REV_AT_EPOCH   = 448
BSTAR          = .15734E-2
MEAN_MOTION_DOT = .89269E-3
MEAN_MOTION_DDOT = 0

CCSDS_OMM_VERS = 2.0
CREATION_DATE  = 
ORIGINATOR     = 

OBJECT_NAME    = STARLINK-36931
OBJECT_ID      = 2026-039Q
CENTER_NAME    = EARTH
REF_FRAME      = TEME
TIME_SYSTEM    = UTC
MEAN_ELEMENT_THEORY = SGP/SGP4

EPOCH          = 2026-03-27T20:00:01.999008
MEAN_MOTION    = 15.43380956
ECCENTRICITY   = .0000869
INCLINATION    = 43.0002
RA_OF_ASC_NODE = 306.3172
ARG_OF_PERICENTER = 276.5472
MEAN_ANOMALY   = 308.9251

EPHEMERIS_TYPE = 0
CLASSIFICATION_TYPE = U
NORAD_CAT_ID   = 68000
ELEMENT_SET_NO = 999
REV_AT_EPOCH   = 579
BSTAR          = -.46936E-1
MEAN_MOTION_DOT = -.1920636E-1
MEAN_MOTION_DDOT = 0

CCSDS_OMM_VERS = 2.0
CREATION_DATE  = 
ORIGINATOR     = 

OBJECT_NAME    = STARLINK-36903
OBJECT_ID      = 2026-039R
CENTER_NAME    = EARTH
REF_FRAME      = TEME
TIME_SYSTEM    = UTC
MEAN_ELEMENT_THEORY = SGP/SGP4

EPOCH          = 2026-03-27T20:00:01.999008
MEAN_MOTION    = 15.31523588
ECCENTRICITY   = .0001754
INCLINATION    = 42.9989
RA_OF_ASC_NODE = 306.9480
ARG_OF_PERICENTER = 252.6539
MEAN_ANOMALY   = 74.4628

EPHEMERIS_TYPE = 0
CLASSIFICATION_TYPE = U
NORAD_CAT_ID   = 68001
ELEMENT_SET_NO = 999
REV_AT_EPOCH   = 579
BSTAR          = -.13033E+0
MEAN_MOTION_DOT = -.3555924E-1
MEAN_MOTION_DDOT = 0

CCSDS_OMM_VERS = 2.0
CREATION_DATE  = 
ORIGINATOR     = 

OBJECT_NAME    = STARLINK-36898
OBJECT_ID      = 2026-039S
CENTER_NAME    = EARTH
REF_FRAME      = TEME
TIME_SYSTEM    = UTC
MEAN_ELEMENT_THEORY = SGP/SGP4

EPOCH          = 2026-03-27T20:00:01.999008
MEAN_MOTION    = 15.28400844
ECCENTRICITY   = .0001712
INCLINATION    = 42.9991
RA_OF_ASC_NODE = 306.7860
ARG_OF_PERICENTER = 244.9386
MEAN_ANOMALY   = 146.9783

EPHEMERIS_TYPE = 0
CLASSIFICATION_TYPE = U
NORAD_CAT_ID   = 68002
ELEMENT_SET_NO = 999
REV_AT_EPOCH   = 579
BSTAR          = -.38717E-3
MEAN_MOTION_DOT = -.11173E-3
MEAN_MOTION_DDOT = 0

CCSDS_OMM_VERS = 2.0
CREATION_DATE  = 
ORIGINATOR     = 

OBJECT_NAME    = STARLINK-36862
OBJECT_ID      = 2026-039T
CENTER_NAME    = EARTH
REF_FRAME      = TEME
TIME_SYSTEM    = UTC
MEAN_ELEMENT_THEORY = SGP/SGP4

EPOCH          = 2026-03-27T20:00:01.999008
MEAN_MOTION    = 15.28393601
ECCENTRICITY   = .0000957
INCLINATION    = 42.9996
RA_OF_ASC_NODE = 306.9705
ARG_OF_PERICENTER = 246.5023
MEAN_ANOMALY   = 69.4925

EPHEMERIS_TYPE = 0
CLASSIFICATION_TYPE = U
NORAD_CAT_ID   = 68003
ELEMENT_SET_NO = 999
REV_AT_EPOCH   = 579
BSTAR          = .17202E-3
MEAN_MOTION_DOT = .4592E-4
MEAN_MOTION_DDOT = 0

CCSDS_OMM_VERS = 2.0
CREATION_DATE  = 
ORIGINATOR     = 

OBJECT_NAME    = STARLINK-36888
OBJECT_ID      = 2026-039U
CENTER_NAME    = EARTH
REF_FRAME      = TEME
TIME_SYSTEM    = UTC
MEAN_ELEMENT_THEORY = SGP/SGP4

EPOCH          = 2026-03-27T20:00:01.999008
MEAN_MOTION    = 15.28392148
ECCENTRICITY   = .0001664
INCLINATION    = 42.9988
RA_OF_ASC_NODE = 306.9857
ARG_OF_PERICENTER = 265.4704
MEAN_ANOMALY   = 45.6085

EPHEMERIS_TYPE = 0
CLASSIFICATION_TYPE = U
NORAD_CAT_ID   = 68004
ELEMENT_SET_NO = 999
REV_AT_EPOCH   = 579
BSTAR          = .32107E-3
MEAN_MOTION_DOT = .8804E-4
MEAN_MOTION_DDOT = 0

CCSDS_OMM_VERS = 2.0
CREATION_DATE  = 
ORIGINATOR     = 

OBJECT_NAME    = STARLINK-36910
OBJECT_ID      = 2026-039V
CENTER_NAME    = EARTH
REF_FRAME      = TEME
TIME_SYSTEM    = UTC
MEAN_ELEMENT_THEORY = SGP/SGP4

EPOCH          = 2026-03-27T20:00:01.999008
MEAN_MOTION    = 15.28391902
ECCENTRICITY   = .0001616
INCLINATION    = 42.9994
RA_OF_ASC_NODE = 306.7245
ARG_OF_PERICENTER = 259.3195
MEAN_ANOMALY   = 157.1418

EPHEMERIS_TYPE = 0
CLASSIFICATION_TYPE = U
NORAD_CAT_ID   = 68005
ELEMENT_SET_NO = 999
REV_AT_EPOCH   = 579
BSTAR          = .16407E-3
MEAN_MOTION_DOT = .4367E-4
MEAN_MOTION_DDOT = 0

CCSDS_OMM_VERS = 2.0
CREATION_DATE  = 
ORIGINATOR     = 

OBJECT_NAME    = STARLINK-36889
OBJECT_ID      = 2026-039W
CENTER_NAME    = EARTH
REF_FRAME      = TEME
TIME_SYSTEM    = UTC
MEAN_ELEMENT_THEORY = SGP/SGP4

EPOCH          = 2026-03-27T20:00:01.999008
MEAN_MOTION    = 15.38072037
ECCENTRICITY   = .0001395
INCLINATION    = 42.9995
RA_OF_ASC_NODE = 306.7106
ARG_OF_PERICENTER = 264.8612
MEAN_ANOMALY   = 160.4988

EPHEMERIS_TYPE = 0
CLASSIFICATION_TYPE = U
NORAD_CAT_ID   = 68006
ELEMENT_SET_NO = 999
REV_AT_EPOCH   = 579
BSTAR          = -.54434E-1
MEAN_MOTION_DOT = -.1870451E-1
MEAN_MOTION_DDOT = 0

CCSDS_OMM_VERS = 2.0
CREATION_DATE  = 
ORIGINATOR     = 

OBJECT_NAME    = STARLINK-36592
OBJECT_ID      = 2026-039X
CENTER_NAME    = EARTH
REF_FRAME      = TEME
TIME_SYSTEM    = UTC
MEAN_ELEMENT_THEORY = SGP/SGP4

EPOCH          = 2026-03-27T20:00:01.999008
MEAN_MOTION    = 15.32449813
ECCENTRICITY   = .0000959
INCLINATION    = 42.9996
RA_OF_ASC_NODE = 306.5910
ARG_OF_PERICENTER = 248.5575
MEAN_ANOMALY   = 223.1518

EPHEMERIS_TYPE = 0
CLASSIFICATION_TYPE = U
NORAD_CAT_ID   = 68007
ELEMENT_SET_NO = 999
REV_AT_EPOCH   = 579
BSTAR          = -.7707E-1
MEAN_MOTION_DOT = -.2207394E-1
MEAN_MOTION_DDOT = 0

CCSDS_OMM_VERS = 2.0
CREATION_DATE  = 
ORIGINATOR     = 

OBJECT_NAME    = STARLINK-36911
OBJECT_ID      = 2026-039Y
CENTER_NAME    = EARTH
REF_FRAME      = TEME
TIME_SYSTEM    = UTC
MEAN_ELEMENT_THEORY = SGP/SGP4

EPOCH          = 2026-03-27T20:00:01.999008
MEAN_MOTION    = 15.36178437
ECCENTRICITY   = .0001395
INCLINATION    = 42.9991
RA_OF_ASC_NODE = 306.5494
ARG_OF_PERICENTER = 276.7939
MEAN_ANOMALY   = 212.9892

EPHEMERIS_TYPE = 0
CLASSIFICATION_TYPE = U
NORAD_CAT_ID   = 68008
ELEMENT_SET_NO = 999
REV_AT_EPOCH   = 579
BSTAR          = -.58305E-1
MEAN_MOTION_DOT = -.188187E-1
MEAN_MOTION_DDOT = 0

CCSDS_OMM_VERS = 2.0
CREATION_DATE  = 
ORIGINATOR     = 

OBJECT_NAME    = STARLINK-36956
OBJECT_ID      = 2026-039Z
CENTER_NAME    = EARTH
REF_FRAME      = TEME
TIME_SYSTEM    = UTC
MEAN_ELEMENT_THEORY = SGP/SGP4

EPOCH          = 2026-03-27T20:00:01.999008
MEAN_MOTION    = 15.38370055
ECCENTRICITY   = .0001431
INCLINATION    = 43.0002
RA_OF_ASC_NODE = 306.5548
ARG_OF_PERICENTER = 279.7507
MEAN_ANOMALY   = 208.2887

EPHEMERIS_TYPE = 0
CLASSIFICATION_TYPE = U
NORAD_CAT_ID   = 68009
ELEMENT_SET_NO = 999
REV_AT_EPOCH   = 579
BSTAR          = -.54074E-1
MEAN_MOTION_DOT = -.187583E-1
MEAN_MOTION_DDOT = 0

